[{"OBJECT_NAME":"SHIJIAN-6 03B (SJ-6 03B)","OBJECT_ID":"2008-053B","EPOCH":"2026-03-09T23:28:00.216192","MEAN_MOTION":15.03879314,"ECCENTRICITY":0.00200774,"INCLINATION":97.8673,"RA_OF_ASC_NODE":87.2117,"ARG_OF_PERICENTER":21.0315,"MEAN_ANOMALY":339.1731,"EPHEMERIS_TYPE":0,"CLASSIFICATION_TYPE":"U","NORAD_CAT_ID":33409,"ELEMENT_SET_NO":999,"REV_AT_EPOCH":94783,"BSTAR":0.00032650966,"MEAN_MOTION_DOT":4.452e-5,"MEAN_MOTION_DDOT":0},{"OBJECT_NAME":"PEGASUS DEB","OBJECT_ID":"1994-029ZE","EPOCH":"2026-03-08T13:49:14.638368","MEAN_MOTION":13.44629817,"ECCENTRICITY":0.07289068,"INCLINATION":81.5203,"RA_OF_ASC_NODE":278.2553,"ARG_OF_PERICENTER":266.581,"MEAN_ANOMALY":85.1759,"EPHEMERIS_TYPE":0,"CLASSIFICATION_TYPE":"U","NORAD_CAT_ID":24602,"ELEMENT_SET_NO":999,"REV_AT_EPOCH":43194,"BSTAR":0.00096331603,"MEAN_MOTION_DOT":2.96e-5,"MEAN_MOTION_DDOT":0}]
